#dP2023  8 11  0  0  0.00000000      96 __u+U IGS14 FIT  IAC
## 2274 432000.00000000   900.00000000 60167 0.0000000000000
+  117   C06C07C08C09C10C11C12C13C14C16C19C20C21C22C23C24C25
+        C26C27C28C29C30C32C33C34C35C36C37C38C39C40C41C42C43
+        C44C45C46E02E03E04E05E07E08E09E10E11E12E13E14E15E18
+        E19E21E24E26E27E30E31E33E34E36G01G02G03G04G05G06G07
+        G08G09G10G11G12G13G14G15G16G17G18G19G20G21G23G24G25
+        G26G27G28G29G30G31G32J02J03J04R01R02R03R04R05R07R08
+        R09R11R12R13R14R15R16R17R18R19R20R21R22R24R25  0  0
++         7  7  8  7  8  7  7  7  7  7  6  6  6  6  6  6  6
++         6  6  6  6  6  6  6  6  6  6  6  7  7  7  6  6  6
++         6  6  6  5  4  5  4  4  4  4  4  5  5  4  5  4  5
++         5  5  4  4  4  4  4  5  5  5  4  3  3  4  4  3  4
++         4  4  3  4  3  4  4  4  4  3  4  3  4  4  4  4  3
++         4  4  4  4  4  3  3  9  9  9  8  7  7  7  7  6  7
++         7  7  7  8  7  7  7  7  7  8  8  7  7  7  8  0  0
%c M  cc GPS ccc cccc cccc cccc cccc ccccc ccccc ccccc ccccc
%c cc cc ccc ccc cccc cccc cccc cccc ccccc ccccc ccccc ccccc
%f  1.2500000  1.025000000  0.00000000000  0.000000000000000
%f  0.0000000  0.000000000  0.00000000000  0.000000000000000
%i    0    0    0    0      0      0      0      0         0
%i    0    0    0    0      0      0      0      0         0
/* INFORMATION & ANALYSIS CENTER (IAC)            FINAL DATA
/* S/V CLOCKS ARE ALIGNED TO GNSS TIME                      
/* G:C1WC2W R:C1PC2P E:C1XC5X C:C2IC6I J:C1CC2S             
/* PCV:IGS20_2247 OL/AL:FES2004  NONE     YN ORB:CoN CLK:CoN
*  2023 08 11 17 30  0.00000000
PC06 -18205.918903  35743.407614  12559.670981    852.787804
PC07  -2987.841292  35681.682599  22499.132922     85.536490
PC08  -9841.829457  19088.245674 -36324.774960    393.800045
PC09 -11139.925010  34591.328043  21308.538985    304.828021
PC10   2951.858926  38385.266393  18141.758854   -142.413334
PC11  -9996.091187 -13142.133963  22556.556760    774.022111
PC12   4144.438842 -25146.269190  11382.607474    862.412690
PC13  -2234.000752  21739.958504 -35918.327831    332.464757
PC14 -18648.660091 -19876.417459  -5837.275661    210.455665
PC16 -19782.035696  35533.927893  10733.941305    -31.357303
PC19  20468.121543  12559.955862  14252.683010   -957.944518
PC20  14849.002188  23581.734168  -1776.546070    369.066978
PC21    326.488925 -21213.248602  18121.720056   -947.849904
PC22  14615.818117  -6257.088203  22926.876216   -355.836986
PC23 -25924.736538   7361.181100   7261.248034   -908.838526
PC24 -10123.351801 -14723.104972 -21445.091899    272.943935
PC25 -26009.360790  -4007.080655  -9319.898774    187.297896
PC26   9712.225155 -16004.091619 -20696.177419   -161.783299
PC27  -9932.239052  25855.689341  -3408.531963    182.962528
PC28 -18052.569274  17236.590942  12492.982747    136.787395
PC29  16018.256383   2933.012424 -22667.929310    159.547795
PC30   4283.750404  21109.620075 -17742.819459     -3.345450
PC32   -221.951194  21188.411143 -18159.108676   -532.848986
PC33 -20542.291954 -12497.792885 -14149.786821   -934.753714
PC34  -5307.028629 -20183.798787  18518.753473    234.934956
PC35  17523.534672 -17648.852788 -12701.321430    569.858438
PC36  25530.115951   5152.579536  10040.766915   -281.608694
PC37 -11139.959437  15596.870365  20308.759444   -805.798415
PC38 -18604.735253  19188.796014 -32631.674733     97.520278
PC39 -22198.879120  35491.451830   3791.989330     -4.262721
PC40  -6804.671502  32136.409086  26601.942281    -32.548183
PC41 -15020.175203   5635.285141 -22786.797941   -889.731758
PC42 -13962.519727 -23929.861658   3250.046296   -581.161824
PC43 -15756.685951  -3967.298820  22675.584855     34.820072
PC44   9099.476516 -26203.122225   3159.620630    196.971948
PC45  25695.529221  -7588.745862  -7758.103294    -12.789909
PC46  11494.144527  14205.326774  21085.733321    -75.781860
PE02  26350.748862   3993.777476 -12864.278506     55.054170
PE03  16845.253251  -2713.732265  24182.845657    -44.970654
PE04 -10310.795129  22624.320067 -16060.869583   -187.112056
PE05  13596.382152  18933.461753  18248.742300      8.075516
PE07  -2162.170643 -29485.137141  -1312.086848    -66.637791
PE08  10415.215692 -22295.270282  16439.075265   -128.745555
PE09   2093.803760  29512.266585   1170.435304   -116.855097
PE10 -13700.432047  20899.150008 -15886.836282   -555.345421
PE11  -3172.792335  19153.974924 -22357.317340   2701.726194
PE12 -21166.315479  19253.155560  -7573.582617   -654.052528
PE13   3957.436481 -19334.956768  22057.035608    -19.419346
PE14  19417.131561   6474.081915 -23417.607371    308.397102
PE15  21401.420917 -19138.093422   7199.077042    -44.308022
PE18 -15739.828494  10717.500843  18007.544899    401.837187
PE19 -16862.951723   -349.718863 -24319.280188  -1873.146719
PE21 -24203.062422 -16389.774577  -4651.761397   -546.066278
PE24   7116.699006  19957.152280  20655.383937   -260.194021
PE26 -16256.077324  -7802.360538  23473.661026    189.817644
PE27  -7882.187574 -19990.046418 -20351.726680   -122.030846
PE30  13397.724131 -11479.259782 -23769.496526   -409.785824
PE31 -12906.581190  11783.047362  23902.782982     -2.441221
PE33 -25974.313980   7260.634414  12209.947508     -1.651101
PE34  26062.754246  -7780.268385 -11670.068519    -60.997375
PE36  15558.480506   8220.853736 -23805.079854    -99.540368
PG01  -7598.470731  18082.395172 -18084.211470    168.990670
PG02 -13388.099958  19421.138332 -11536.675626   -566.557803
PG03   3566.338565  17323.100805 -19995.532508   -191.868968
PG04   -454.946738  26490.966578    -18.227244    122.582928
PG05  12844.988927  -9757.489637  20937.825199   -138.413745
PG06  22663.755191  -3004.039293 -13539.504860    567.607720
PG07   9641.353717  12455.627482  21878.516003     98.706944
PG08  -6698.321185  22966.405658  11027.702324   -136.680244
PG09   7130.257406  23995.437186   8729.456735    -89.224212
PG10 -24172.364550 -10922.107832  -3160.071697    -48.870345
PG11  23442.654967 -12427.737333   -174.761161   -316.307992
PG12   1608.495221 -16408.648989 -21112.836970   -411.690974
PG13  12982.474177 -16533.041664  15915.755930    558.834573
PG14  23049.140576  13374.984494   -367.303234    150.913665
PG15   3406.539527 -24139.481459   9762.066094     66.677860
PG16 -17458.600634   4426.184989  19362.074887   -469.541710
PG17  13091.297640  10874.828439 -19928.532754    722.561954
PG18 -11459.566494 -10353.440371  21629.117755   -378.910925
PG19  14871.157171   2593.253318 -22071.859522    356.292261
PG20  21284.992563  -4135.237221  15246.171839    417.776301
PG21 -15032.145036  18963.166183  -9304.623820    150.887685
PG23 -19009.113534 -16497.628990   8747.052986     53.860827
PG24  10241.526556 -20215.034797 -13874.460428   -286.626249
PG25 -12678.410931 -18603.904766 -14612.279786    461.575955
PG26 -24063.705422  -1918.907349  11340.313465    233.324947
PG27 -12762.992530  13016.373562  18913.855703    -20.189672
PG28 -21883.779980   1757.945185 -14968.692745     77.025934
PG29  -4362.527661 -24692.271040   8551.319879   -607.574743
PG30  18227.556651   5315.804661  18796.903809   -497.261930
PG31 -24488.011732   9324.539228  -5730.984841   -221.665176
PG32 -14803.617526  -6566.053008 -20907.225742   -538.707697
PJ02 -28001.246383  20676.582557  28886.296376     -2.425998
PJ03 -34207.765344  24764.133737   6126.610099     -0.931758
PJ04 -19249.367254  25979.628017 -21980.248921     70.503858
PR01  12209.784384  22222.495546   2845.261766     63.286067
PR02  14038.708209  10283.997195  18661.832038    -22.542391
PR03   8353.259627  -7706.677707  22883.112739     83.109995
PR04  -1822.951310 -20906.309912  14535.970843    198.290455
PR05 -10916.501355 -23004.674090  -1716.109613    117.173843
PR07  -7942.072052   8408.439656 -22693.782867     62.204892
PR08   2051.705777  21001.474739 -14253.175811    -72.084568
PR09 -25023.212960  -3420.522100  -3233.182417    136.157955
PR11  -6516.190062  10156.300653  22485.328699   -129.459095
PR12  14168.816447  10294.129118  18571.620274     30.074403
PR13  24518.439235   4609.610493   5312.871348    -38.052132
PR14  21135.336786  -4709.809398 -13482.432260     25.076999
PR15   5204.472765 -10456.528031 -22651.703222     87.095175
PR16 -13964.353866 -10115.426120 -18765.883765     17.601310
PR17  17150.656505 -16573.774726  -8974.735498      7.949089
PR18  11618.118424 -21389.971503   7706.658229     96.259682
PR19   1594.476158 -16123.036808  19693.226676   -243.126415
PR20 -13140.194058    942.914845  21839.937452    -98.130052
PR21 -17153.260598  17172.066448   7899.372292    -29.606371
PR22 -11618.472379  21033.932786  -8525.993043    111.330823
PR24  13755.561412  -1744.619968 -21391.261400    -20.086265
PR25 -17997.434777  15715.613137   8972.083889     43.134006
EOF
